{
  "type": "FeatureCollection",
  "features": [
    {
      "type": "Feature",
      "properties": {
        "norad_id": 43783,
        "name": "KAZSTSAT",
        "group": "resource",
        "lat": 35.23285493792712,
        "lon": -142.27717028479591,
        "alt_km": 569.6760182501885,
        "timestamp": "2025-12-23T16:57:12.002746+00:00",
        "meta_object_name": "KAZSTSAT",
        "meta_object_id": "2018-099AB",
        "meta_epoch": "2025-12-23T01:53:46.105440",
        "meta_mean_motion": 14.99368841,
        "meta_eccentricity": 0.00061477,
        "meta_inclination": 97.4519,
        "meta_ra_of_asc_node": 31.8184,
        "meta_arg_of_pericenter": 283.8147,
        "meta_mean_anomaly": 76.2392,
        "meta_ephemeris_type": 0,
        "meta_classification_type": "U",
        "meta_norad_cat_id": 43783,
        "meta_element_set_no": 999,
        "meta_rev_at_epoch": 38491,
        "meta_bstar": 4.7681769e-05,
        "meta_mean_motion_dot": 5.27e-06,
        "meta_mean_motion_ddot": 0,
        "tle_line1": "1 43783U 18099AB  25357.07900585  .00000527  00000+0  47682-4 0  9992",
        "tle_line2": "2 43783  97.4519  31.8184 0006147 283.8147  76.2392 14.99368841384915"
      },
      "geometry": {
        "type": "Point",
        "coordinates": [
          -142.27717028479591,
          35.23285493792712
        ]
      }
    },
    {
      "type": "Feature",
      "properties": {
        "norad_id": 43831,
        "name": "SAUDISAT 5A",
        "group": "resource",
        "lat": 23.443412361902162,
        "lon": -119.11297113991971,
        "alt_km": 491.1821979059978,
        "timestamp": "2025-12-23T16:57:12.002756+00:00",
        "meta_object_name": "SAUDISAT 5A",
        "meta_object_id": "2018-102A",
        "meta_epoch": "2025-12-23T06:49:40.088928",
        "meta_mean_motion": 15.25779881,
        "meta_eccentricity": 0.00112067,
        "meta_inclination": 97.3333,
        "meta_ra_of_asc_node": 57.2719,
        "meta_arg_of_pericenter": 43.6304,
        "meta_mean_anomaly": 316.5819,
        "meta_ephemeris_type": 0,
        "meta_classification_type": "U",
        "meta_norad_cat_id": 43831,
        "meta_element_set_no": 999,
        "meta_rev_at_epoch": 38883,
        "meta_bstar": 0.00024555488,
        "meta_mean_motion_dot": 6.211e-05,
        "meta_mean_motion_ddot": 0,
        "tle_line1": "1 43831U 18102A   25357.28449177  .00006211  00000+0  24555-3 0  9998",
        "tle_line2": "2 43831  97.3333  57.2719 0011206  43.6304 316.5819 15.25779881388836"
      },
      "geometry": {
        "type": "Point",
        "coordinates": [
          -119.11297113991971,
          23.443412361902162
        ]
      }
    },
    {
      "type": "Feature",
      "properties": {
        "norad_id": 43833,
        "name": "SAUDISAT 5B",
        "group": "resource",
        "lat": -41.83689709880765,
        "lon": -126.18546722066202,
        "alt_km": 502.2494994610088,
        "timestamp": "2025-12-23T16:57:12.002766+00:00",
        "meta_object_name": "SAUDISAT 5B",
        "meta_object_id": "2018-102C",
        "meta_epoch": "2025-12-23T08:06:54.413856",
        "meta_mean_motion": 15.26127593,
        "meta_eccentricity": 0.00119403,
        "meta_inclination": 97.3429,
        "meta_ra_of_asc_node": 60.0822,
        "meta_arg_of_pericenter": 45.438,
        "meta_mean_anomaly": 314.7831,
        "meta_ephemeris_type": 0,
        "meta_classification_type": "U",
        "meta_norad_cat_id": 43833,
        "meta_element_set_no": 999,
        "meta_rev_at_epoch": 38895,
        "meta_bstar": 0.00024751207,
        "meta_mean_motion_dot": 6.329e-05,
        "meta_mean_motion_ddot": 0,
        "tle_line1": "1 43833U 18102C   25357.33812979  .00006329  00000+0  24751-3 0  9998",
        "tle_line2": "2 43833  97.3429  60.0822 0011940  45.4380 314.7831 15.26127593388955"
      },
      "geometry": {
        "type": "Point",
        "coordinates": [
          -126.18546722066202,
          -41.83689709880765
        ]
      }
    },
    {
      "type": "Feature",
      "properties": {
        "norad_id": 44622,
        "name": "GAOFEN-10R",
        "group": "resource",
        "lat": -77.58781446740504,
        "lon": 85.36265550701191,
        "alt_km": 629.381277491726,
        "timestamp": "2025-12-23T16:57:12.002777+00:00",
        "meta_object_name": "GAOFEN-10R",
        "meta_object_id": "2019-066A",
        "meta_epoch": "2025-12-23T07:41:03.067296",
        "meta_mean_motion": 14.82826,
        "meta_eccentricity": 0.00071421,
        "meta_inclination": 98.0292,
        "meta_ra_of_asc_node": 304.8684,
        "meta_arg_of_pericenter": 10.8317,
        "meta_mean_anomaly": 349.3048,
        "meta_ephemeris_type": 0,
        "meta_classification_type": "U",
        "meta_norad_cat_id": 44622,
        "meta_element_set_no": 999,
        "meta_rev_at_epoch": 33631,
        "meta_bstar": 0.000190975,
        "meta_mean_motion_dot": 1.491e-05,
        "meta_mean_motion_ddot": 0,
        "tle_line1": "1 44622U 19066A   25357.32017439  .00001491  00000+0  19097-3 0  9994",
        "tle_line2": "2 44622  98.0292 304.8684 0007142  10.8317 349.3048 14.82826000336315"
      },
      "geometry": {
        "type": "Point",
        "coordinates": [
          85.36265550701191,
          -77.58781446740504
        ]
      }
    },
    {
      "type": "Feature",
      "properties": {
        "norad_id": 44804,
        "name": "CARTOSAT-3",
        "group": "resource",
        "lat": 57.044697484027964,
        "lon": 45.49373928380816,
        "alt_km": 493.38009620300636,
        "timestamp": "2025-12-23T16:57:12.002787+00:00",
        "meta_object_name": "CARTOSAT-3",
        "meta_object_id": "2019-081A",
        "meta_epoch": "2025-12-23T07:12:57.410208",
        "meta_mean_motion": 15.1923784,
        "meta_eccentricity": 0.00136962,
        "meta_inclination": 97.4568,
        "meta_ra_of_asc_node": 56.749,
        "meta_arg_of_pericenter": 50.138,
        "meta_mean_anomaly": 310.1057,
        "meta_ephemeris_type": 0,
        "meta_classification_type": "U",
        "meta_norad_cat_id": 44804,
        "meta_element_set_no": 999,
        "meta_rev_at_epoch": 33676,
        "meta_bstar": 0.00021799582,
        "meta_mean_motion_dot": 4.535e-05,
        "meta_mean_motion_ddot": 0,
        "tle_line1": "1 44804U 19081A   25357.30066447  .00004535  00000+0  21800-3 0  9991",
        "tle_line2": "2 44804  97.4568  56.7490 0013696  50.1380 310.1057 15.19237840336766"
      },
      "geometry": {
        "type": "Point",
        "coordinates": [
          45.49373928380816,
          57.044697484027964
        ]
      }
    },
    {
      "type": "Feature",
      "properties": {
        "norad_id": 44819,
        "name": "GAOFEN-12 01",
        "group": "resource",
        "lat": 79.32156419811115,
        "lon": -43.02946130358164,
        "alt_km": 620.1240011955051,
        "timestamp": "2025-12-23T16:57:12.002797+00:00",
        "meta_object_name": "GAOFEN-12 01",
        "meta_object_id": "2019-082A",
        "meta_epoch": "2025-12-23T06:50:59.399808",
        "meta_mean_motion": 14.80668934,
        "meta_eccentricity": 0.00020594,
        "meta_inclination": 97.8124,
        "meta_ra_of_asc_node": 3.2896,
        "meta_arg_of_pericenter": 184.8745,
        "meta_mean_anomaly": 175.2447,
        "meta_ephemeris_type": 0,
        "meta_classification_type": "U",
        "meta_norad_cat_id": 44819,
        "meta_element_set_no": 999,
        "meta_rev_at_epoch": 32806,
        "meta_bstar": 6.5042652e-05,
        "meta_mean_motion_dot": 4.49e-06,
        "meta_mean_motion_ddot": 0,
        "tle_line1": "1 44819U 19082A   25357.28540972  .00000449  00000+0  65043-4 0  9993",
        "tle_line2": "2 44819  97.8124   3.2896 0002059 184.8745 175.2447 14.80668934328068"
      },
      "geometry": {
        "type": "Point",
        "coordinates": [
          -43.02946130358164,
          79.32156419811115
        ]
      }
    },
    {
      "type": "Feature",
      "properties": {
        "norad_id": 44873,
        "name": "CSG-1",
        "group": "resource",
        "lat": -70.88105354315266,
        "lon": -24.686989268622884,
        "alt_km": 630.8229040943388,
        "timestamp": "2025-12-23T16:57:12.002807+00:00",
        "meta_object_name": "CSG-1",
        "meta_object_id": "2019-092A",
        "meta_epoch": "2025-12-23T09:20:11.779872",
        "meta_mean_motion": 14.82157947,
        "meta_eccentricity": 0.0001477,
        "meta_inclination": 97.881,
        "meta_ra_of_asc_node": 178.5528,
        "meta_arg_of_pericenter": 85.9747,
        "meta_mean_anomaly": 274.1635,
        "meta_ephemeris_type": 0,
        "meta_classification_type": "U",
        "meta_norad_cat_id": 44873,
        "meta_element_set_no": 999,
        "meta_rev_at_epoch": 32543,
        "meta_bstar": 7.4681e-05,
        "meta_mean_motion_dot": 5.42e-06,
        "meta_mean_motion_ddot": 0,
        "tle_line1": "1 44873U 19092A   25357.38902523  .00000542  00000+0  74681-4 0  9991",
        "tle_line2": "2 44873  97.8810 178.5528 0001477  85.9747 274.1635 14.82157947325439"
      },
      "geometry": {
        "type": "Point",
        "coordinates": [
          -24.686989268622884,
          -70.88105354315266
        ]
      }
    }
  ]
}